MALLIGYONG-1            
1 58400U 23179A   24024.14219706  .00007579  00000+0  33302-3 0  9992
2 58400  97.4248 273.0871 0017430  58.3750 301.9184 15.22059667  9664
